CCSDS_OMM_VERS = 2.0
CREATION_DATE  = 
ORIGINATOR     = 

OBJECT_NAME    = STARLINK-35460
OBJECT_ID      = 2025-253K
CENTER_NAME    = EARTH
REF_FRAME      = TEME
TIME_SYSTEM    = UTC
MEAN_ELEMENT_THEORY = SGP/SGP4

EPOCH          = 2025-11-30T22:51:57.250944
MEAN_MOTION    = 15.50606448
ECCENTRICITY   = .00007351
INCLINATION    = 42.9999
RA_OF_ASC_NODE = 53.6137
ARG_OF_PERICENTER = 282.6057
MEAN_ANOMALY   = 77.4721

EPHEMERIS_TYPE = 0
CLASSIFICATION_TYPE = U
NORAD_CAT_ID   = 66328
ELEMENT_SET_NO = 999
REV_AT_EPOCH   = 510
BSTAR          = .22818636E-2
MEAN_MOTION_DOT = .136007E-2
MEAN_MOTION_DDOT = 0

CCSDS_OMM_VERS = 2.0
CREATION_DATE  = 
ORIGINATOR     = 

OBJECT_NAME    = STARLINK-35505
OBJECT_ID      = 2025-253L
CENTER_NAME    = EARTH
REF_FRAME      = TEME
TIME_SYSTEM    = UTC
MEAN_ELEMENT_THEORY = SGP/SGP4

EPOCH          = 2025-11-30T16:45:51.328800
MEAN_MOTION    = 15.50599673
ECCENTRICITY   = .00011837
INCLINATION    = 43.0001
RA_OF_ASC_NODE = 55.1509
ARG_OF_PERICENTER = 268.1447
MEAN_ANOMALY   = 91.9277

EPHEMERIS_TYPE = 0
CLASSIFICATION_TYPE = U
NORAD_CAT_ID   = 66329
ELEMENT_SET_NO = 999
REV_AT_EPOCH   = 506
BSTAR          = .11827313E-2
MEAN_MOTION_DOT = .69715E-3
MEAN_MOTION_DDOT = 0

CCSDS_OMM_VERS = 2.0
CREATION_DATE  = 
ORIGINATOR     = 

OBJECT_NAME    = STARLINK-35512
OBJECT_ID      = 2025-253M
CENTER_NAME    = EARTH
REF_FRAME      = TEME
TIME_SYSTEM    = UTC
MEAN_ELEMENT_THEORY = SGP/SGP4

EPOCH          = 2025-11-30T22:00:03.000096
MEAN_MOTION    = 15.45537495
ECCENTRICITY   = .00015223
INCLINATION    = 43.0000
RA_OF_ASC_NODE = 53.8751
ARG_OF_PERICENTER = 283.7383
MEAN_ANOMALY   = 215.1102

EPHEMERIS_TYPE = 0
CLASSIFICATION_TYPE = U
NORAD_CAT_ID   = 66330
ELEMENT_SET_NO = 999
REV_AT_EPOCH   = 502
BSTAR          = -.47407344E-1
MEAN_MOTION_DOT = -.2070761E-1
MEAN_MOTION_DDOT = 0

CCSDS_OMM_VERS = 2.0
CREATION_DATE  = 
ORIGINATOR     = 

OBJECT_NAME    = STARLINK-35257
OBJECT_ID      = 2025-253N
CENTER_NAME    = EARTH
REF_FRAME      = TEME
TIME_SYSTEM    = UTC
MEAN_ELEMENT_THEORY = SGP/SGP4

EPOCH          = 2025-11-30T22:50:28.197600
MEAN_MOTION    = 15.50609729
ECCENTRICITY   = .00012618
INCLINATION    = 42.9999
RA_OF_ASC_NODE = 53.6062
ARG_OF_PERICENTER = 280.1497
MEAN_ANOMALY   = 79.9220

EPHEMERIS_TYPE = 0
CLASSIFICATION_TYPE = U
NORAD_CAT_ID   = 66331
ELEMENT_SET_NO = 999
REV_AT_EPOCH   = 510
BSTAR          = .23482532E-2
MEAN_MOTION_DOT = .140064E-2
MEAN_MOTION_DDOT = 0

CCSDS_OMM_VERS = 2.0
CREATION_DATE  = 
ORIGINATOR     = 

OBJECT_NAME    = STARLINK-35322
OBJECT_ID      = 2025-253P
CENTER_NAME    = EARTH
REF_FRAME      = TEME
TIME_SYSTEM    = UTC
MEAN_ELEMENT_THEORY = SGP/SGP4

EPOCH          = 2025-11-30T22:52:56.537760
MEAN_MOTION    = 15.50598326
ECCENTRICITY   = .00007998
INCLINATION    = 43.0000
RA_OF_ASC_NODE = 53.6201
ARG_OF_PERICENTER = 294.1495
MEAN_ANOMALY   = 65.9282

EPHEMERIS_TYPE = 0
CLASSIFICATION_TYPE = U
NORAD_CAT_ID   = 66332
ELEMENT_SET_NO = 999
REV_AT_EPOCH   = 510
BSTAR          = .19488161E-2
MEAN_MOTION_DOT = .115771E-2
MEAN_MOTION_DDOT = 0

CCSDS_OMM_VERS = 2.0
CREATION_DATE  = 
ORIGINATOR     = 

OBJECT_NAME    = STARLINK-35400
OBJECT_ID      = 2025-253Q
CENTER_NAME    = EARTH
REF_FRAME      = TEME
TIME_SYSTEM    = UTC
MEAN_ELEMENT_THEORY = SGP/SGP4

EPOCH          = 2025-11-30T22:50:57.890688
MEAN_MOTION    = 15.50592046
ECCENTRICITY   = .00009019
INCLINATION    = 43.0003
RA_OF_ASC_NODE = 53.6088
ARG_OF_PERICENTER = 285.3607
MEAN_ANOMALY   = 74.7154

EPHEMERIS_TYPE = 0
CLASSIFICATION_TYPE = U
NORAD_CAT_ID   = 66333
ELEMENT_SET_NO = 999
REV_AT_EPOCH   = 510
BSTAR          = .12165224E-2
MEAN_MOTION_DOT = .71715E-3
MEAN_MOTION_DDOT = 0

CCSDS_OMM_VERS = 2.0
CREATION_DATE  = 
ORIGINATOR     = 

OBJECT_NAME    = STARLINK-35407
OBJECT_ID      = 2025-253R
CENTER_NAME    = EARTH
REF_FRAME      = TEME
TIME_SYSTEM    = UTC
MEAN_ELEMENT_THEORY = SGP/SGP4

EPOCH          = 2025-11-30T16:41:25.488960
MEAN_MOTION    = 15.50547998
ECCENTRICITY   = .00009092
INCLINATION    = 43.0003
RA_OF_ASC_NODE = 55.1243
ARG_OF_PERICENTER = 295.1018
MEAN_ANOMALY   = 64.9747

EPHEMERIS_TYPE = 0
CLASSIFICATION_TYPE = U
NORAD_CAT_ID   = 66334
ELEMENT_SET_NO = 999
REV_AT_EPOCH   = 506
BSTAR          = .13875162E-2
MEAN_MOTION_DOT = .81821E-3
MEAN_MOTION_DDOT = 0

CCSDS_OMM_VERS = 2.0
CREATION_DATE  = 
ORIGINATOR     = 

OBJECT_NAME    = STARLINK-35417
OBJECT_ID      = 2025-253S
CENTER_NAME    = EARTH
REF_FRAME      = TEME
TIME_SYSTEM    = UTC
MEAN_ELEMENT_THEORY = SGP/SGP4

EPOCH          = 2025-11-30T22:00:03.000096
MEAN_MOTION    = 15.40690647
ECCENTRICITY   = .00014314
INCLINATION    = 43.0005
RA_OF_ASC_NODE = 53.9393
ARG_OF_PERICENTER = 271.2776
MEAN_ANOMALY   = 199.5549

EPHEMERIS_TYPE = 0
CLASSIFICATION_TYPE = U
NORAD_CAT_ID   = 66335
ELEMENT_SET_NO = 999
REV_AT_EPOCH   = 502
BSTAR          = .97064995E-4
MEAN_MOTION_DOT = .3752E-4
MEAN_MOTION_DDOT = 0

CCSDS_OMM_VERS = 2.0
CREATION_DATE  = 
ORIGINATOR     = 

OBJECT_NAME    = STARLINK-35404
OBJECT_ID      = 2025-253T
CENTER_NAME    = EARTH
REF_FRAME      = TEME
TIME_SYSTEM    = UTC
MEAN_ELEMENT_THEORY = SGP/SGP4

EPOCH          = 2025-11-30T22:49:58.559808
MEAN_MOTION    = 15.50596072
ECCENTRICITY   = .00012973
INCLINATION    = 42.9998
RA_OF_ASC_NODE = 53.6038
ARG_OF_PERICENTER = 281.8064
MEAN_ANOMALY   = 78.2651

EPHEMERIS_TYPE = 0
CLASSIFICATION_TYPE = U
NORAD_CAT_ID   = 66336
ELEMENT_SET_NO = 999
REV_AT_EPOCH   = 510
BSTAR          = .16750405E-2
MEAN_MOTION_DOT = .99239E-3
MEAN_MOTION_DDOT = 0

CCSDS_OMM_VERS = 2.0
CREATION_DATE  = 
ORIGINATOR     = 

OBJECT_NAME    = STARLINK-34783
OBJECT_ID      = 2025-253U
CENTER_NAME    = EARTH
REF_FRAME      = TEME
TIME_SYSTEM    = UTC
MEAN_ELEMENT_THEORY = SGP/SGP4

EPOCH          = 2025-11-30T22:00:03.000096
MEAN_MOTION    = 15.40625513
ECCENTRICITY   = .00020777
INCLINATION    = 43.0006
RA_OF_ASC_NODE = 53.8797
ARG_OF_PERICENTER = 263.5103
MEAN_ANOMALY   = 232.2069

EPHEMERIS_TYPE = 0
CLASSIFICATION_TYPE = U
NORAD_CAT_ID   = 66337
ELEMENT_SET_NO = 999
REV_AT_EPOCH   = 507
BSTAR          = .7193701E-3
MEAN_MOTION_DOT = .2979E-3
MEAN_MOTION_DDOT = 0

CCSDS_OMM_VERS = 2.0
CREATION_DATE  = 
ORIGINATOR     = 

OBJECT_NAME    = STARLINK-35477
OBJECT_ID      = 2025-253V
CENTER_NAME    = EARTH
REF_FRAME      = TEME
TIME_SYSTEM    = UTC
MEAN_ELEMENT_THEORY = SGP/SGP4

EPOCH          = 2025-11-30T22:00:03.000096
MEAN_MOTION    = 15.40672304
ECCENTRICITY   = .0000612
INCLINATION    = 43.0003
RA_OF_ASC_NODE = 53.9714
ARG_OF_PERICENTER = 267.0171
MEAN_ANOMALY   = 191.3178

EPHEMERIS_TYPE = 0
CLASSIFICATION_TYPE = U
NORAD_CAT_ID   = 66338
ELEMENT_SET_NO = 999
REV_AT_EPOCH   = 512
BSTAR          = .63602806E-3
MEAN_MOTION_DOT = .26332E-3
MEAN_MOTION_DDOT = 0

CCSDS_OMM_VERS = 2.0
CREATION_DATE  = 
ORIGINATOR     = 

OBJECT_NAME    = STARLINK-35443
OBJECT_ID      = 2025-253W
CENTER_NAME    = EARTH
REF_FRAME      = TEME
TIME_SYSTEM    = UTC
MEAN_ELEMENT_THEORY = SGP/SGP4

EPOCH          = 2025-11-30T22:46:31.073664
MEAN_MOTION    = 15.50592971
ECCENTRICITY   = .0001347
INCLINATION    = 42.9997
RA_OF_ASC_NODE = 53.5833
ARG_OF_PERICENTER = 286.1151
MEAN_ANOMALY   = 73.9561

EPHEMERIS_TYPE = 0
CLASSIFICATION_TYPE = U
NORAD_CAT_ID   = 66339
ELEMENT_SET_NO = 999
REV_AT_EPOCH   = 510
BSTAR          = .163722E-2
MEAN_MOTION_DOT = .96952E-3
MEAN_MOTION_DDOT = 0

CCSDS_OMM_VERS = 2.0
CREATION_DATE  = 
ORIGINATOR     = 

OBJECT_NAME    = STARLINK-35218
OBJECT_ID      = 2025-253X
CENTER_NAME    = EARTH
REF_FRAME      = TEME
TIME_SYSTEM    = UTC
MEAN_ELEMENT_THEORY = SGP/SGP4

EPOCH          = 2025-11-30T22:49:28.990272
MEAN_MOTION    = 15.50605567
ECCENTRICITY   = .00013052
INCLINATION    = 43.0000
RA_OF_ASC_NODE = 53.6004
ARG_OF_PERICENTER = 277.1861
MEAN_ANOMALY   = 82.8850

EPHEMERIS_TYPE = 0
CLASSIFICATION_TYPE = U
NORAD_CAT_ID   = 66340
ELEMENT_SET_NO = 999
REV_AT_EPOCH   = 510
BSTAR          = .23078416E-2
MEAN_MOTION_DOT = .137583E-2
MEAN_MOTION_DDOT = 0

CCSDS_OMM_VERS = 2.0
CREATION_DATE  = 
ORIGINATOR     = 

OBJECT_NAME    = STARLINK-35522
OBJECT_ID      = 2025-253Y
CENTER_NAME    = EARTH
REF_FRAME      = TEME
TIME_SYSTEM    = UTC
MEAN_ELEMENT_THEORY = SGP/SGP4

EPOCH          = 2025-11-30T22:51:27.591552
MEAN_MOTION    = 15.50608334
ECCENTRICITY   = .00007972
INCLINATION    = 43.0001
RA_OF_ASC_NODE = 53.6136
ARG_OF_PERICENTER = 293.4081
MEAN_ANOMALY   = 66.6695

EPHEMERIS_TYPE = 0
CLASSIFICATION_TYPE = U
NORAD_CAT_ID   = 66341
ELEMENT_SET_NO = 999
REV_AT_EPOCH   = 510
BSTAR          = .23003849E-2
MEAN_MOTION_DOT = .137143E-2
MEAN_MOTION_DDOT = 0

CCSDS_OMM_VERS = 2.0
CREATION_DATE  = 
ORIGINATOR     = 

OBJECT_NAME    = STARLINK-35535
OBJECT_ID      = 2025-253Z
CENTER_NAME    = EARTH
REF_FRAME      = TEME
TIME_SYSTEM    = UTC
MEAN_ELEMENT_THEORY = SGP/SGP4

EPOCH          = 2025-11-30T22:00:03.000096
MEAN_MOTION    = 15.48211186
ECCENTRICITY   = .00011448
INCLINATION    = 43.0002
RA_OF_ASC_NODE = 53.7816
ARG_OF_PERICENTER = 276.7892
MEAN_ANOMALY   = 258.7332

EPHEMERIS_TYPE = 0
CLASSIFICATION_TYPE = U
NORAD_CAT_ID   = 66342
ELEMENT_SET_NO = 999
REV_AT_EPOCH   = 502
BSTAR          = -.43829865E-1
MEAN_MOTION_DOT = -.2098509E-1
MEAN_MOTION_DDOT = 0

